#dP2020  2  7  0  0  0.00000000      96 __u+U ITR00 FIT  IAC
## 2091 432000.00000000   900.00000000 58886 0.0000000000000
+  115   C01C02C03C04C05C06C07C08C09C10C11C12C13C14C16C18C19
+        C20C21C22C23C24C25C26C27C28C29C30C32C33C34C35C36C37
+        E01E02E03E04E05E07E08E09E11E12E13E14E15E18E19E21E24
+        E25E26E27E30E31E33E36G01G02G03G04G05G06G07G08G09G10
+        G11G12G13G14G15G16G17G18G19G20G21G22G23G24G25G26G27
+        G28G29G30G31G32J01J02J03R01R02R03R04R05R07R08R09R11
+        R12R13R14R15R16R17R18R19R20R21R22R23R26  0  0  0  0
++         0 13 13 13 13  8  8  8  8  8  8  8  8  7  8 15  8
++         7  8  8  8  8  8  8  8  7  8  8  8  7  8  8  8  8
++         4  4  4  4  5  5  5  5  4  4  5  4  4  5  4  5  4
++         5  5  4  5  4  4  5  3  4  3  3  4  3  3  3  3  3
++         3  3  4  3  4  4  3  4  3  3  3  3  3  3  3  3  3
++         3  3  3  3  3  9  8  8  6  5  5  6  6  5  5  5  6
++         6  6  5  6  6  5  5  6  6  6  5  5  8  0  0  0  0
%c M  cc GPS ccc cccc cccc cccc cccc ccccc ccccc ccccc ccccc
%c cc cc ccc ccc cccc cccc cccc cccc ccccc ccccc ccccc ccccc
%f  0.0000000  0.000000000  0.00000000000  0.000000000000000
%f  0.0000000  0.000000000  0.00000000000  0.000000000000000
%i    0    0    0    0      0      0      0      0         0
%i    0    0    0    0      0      0      0      0         0
/* INFORMATION & ANALYSIS CENTER (IAC)            RAPID DATA
/* S/V CLOCKS ARE ALIGNED TO GNSS TIME                      
/* G:C1WC2W R:C1PC2P E:C1XC5X C:C2IC6I J:C1CC2S             
/* PCV:IGS14_2086 OL/AL:FES2004  NONE     YN ORB:CoN CLK:CoN
*  2020 02 07 18 15  0.00000000
PC01      0.000000      0.000000      0.000000 999999.999999
PC02   4447.303809  41945.639023    944.479174    559.777251
PC03 -14883.697429  39450.153441    912.408147   -293.930873
PC04 -39599.305021  14424.976202    277.348874   -422.469454
PC05  21864.397293  36062.419999    897.917438   -306.637996
PC06 -22385.455600  34441.787492 -10029.785769    248.774409
PC07  -7643.519794  33279.721105 -24226.765313    -54.810764
PC08 -15193.876497  18178.234018  34912.810204   -109.578417
PC09 -12776.577160  34013.143175 -21459.520194    317.650962
PC10   2944.153200  39102.620675 -14760.969638   -637.660688
PC11 -20419.004444  -2746.409316 -18732.553696   -168.259716
PC12  -3321.946265 -15496.462597 -22929.805969    316.657671
PC13   -237.414808  23387.854507  35192.536004    253.086116
PC14 -14541.486971 -11833.254291  20713.999569    138.259610
PC16 -20482.648908  34932.672857 -12065.688806   -794.426343
PC18   7308.164577  41530.057801   -245.648911   -558.684263
PC19  15909.202309   1022.638598 -22880.957132    319.465234
PC20  11109.676154  20122.412606 -15791.946042   -675.069830
PC21    510.088023 -27895.345351   -922.102600    -53.265971
PC22  11593.284571 -19051.452123 -16788.332041   -811.126746
PC23 -14975.442115   9065.483015 -21732.594944   -885.839887
PC24 -20271.105016 -17811.519508   7041.496691   -919.732222
PC25 -25179.807244  -5289.039530 -10785.729297   -508.090250
PC26  -4824.601389 -18880.469553  19955.324725    562.922059
PC27  -6562.541141  18967.440817  19387.701623    274.434815
PC28 -22139.468383  16228.100628   5018.082018    265.371175
PC29  24586.196845  -4952.506428  12232.413745    184.584568
PC30  12978.745680  10336.593603  22438.673122    268.426494
PC32   -328.842711  27885.423755    952.637488   -866.333007
PC33 -15956.285589  -1053.037459  22874.952132   -878.223898
PC34 -13376.674558 -10096.999858 -22315.485467   -452.383922
PC35  21636.728903 -16906.318973  -4866.552433   -851.001213
PC36  25099.117343   6039.634316  10618.151802   -833.322122
PC37   3801.282548  18842.370581 -20222.358327   -888.752395
PE01   1722.684467  23276.372322 -18212.354239   -790.022543
PE02  -1776.910482 -23294.021756  18162.597876    111.151035
PE03   8614.679354 -27845.763669   5190.295149   -263.730598
PE04   6404.657994  20618.688993 -20248.698502   -461.234573
PE05  18743.529127 -18815.168239 -13074.528837   -407.365343
PE07 -17853.933635  -1151.813489  23581.958856   -337.773586
PE08  -6572.333120 -20388.644381  20430.384183   6223.611350
PE09  17765.903072    862.460935 -23661.783053   6163.644143
PE11  28488.517316   2081.117883   7731.217093   1154.463981
PE12  14323.843529  13264.480053  22254.800102   5962.727591
PE13 -28436.350364  -2072.080466  -7952.517142    398.144177
PE14  18238.842264   -144.101361  15699.436734   -896.808369
PE15 -14620.965493 -13025.222388 -22183.048237    878.092232
PE18 -20389.158151  -7361.829515 -23759.284156   -994.018676
PE19 -10060.358726  27656.180985  -3198.054017     -1.634365
PE21 -14014.852220   8559.820589 -24631.245868   -581.401187
PE24  21684.290357  11503.392941  16548.103480   5622.169311
PE25  14094.449437  -8441.405442  24625.244694   -503.309598
PE26 -25461.393514  10159.989152  11177.050835   3556.051056
PE27 -21707.418561 -11310.621501 -16635.617878    287.208245
PE30 -16404.480785 -24595.416211   1234.006455   4161.823731
PE31  16632.082459  24465.109980  -1090.035947   -471.621913
PE33  -7804.029501  16354.036419  23421.497017   -470.498755
PE36  25583.253759 -10087.892777 -10929.193368    601.263513
PG01 -16874.316633 -13998.408222 -15427.219126   -287.577664
PG02  -6809.062089  14578.101867  21762.971204   -400.545814
PG03 -13285.885199 -21582.594210   8046.051730    -89.284170
PG04  -8939.234678 -12610.376797  21604.248206    -45.578524
PG05    386.608535  23859.652565  11317.228070     -7.248495
PG06 -18974.813427   7915.366853  16892.887625   -202.664426
PG07 -26187.341201  -5810.787460    505.492711   -209.389923
PG08    552.539979 -19569.985458 -17801.130331    -22.951455
PG09 -16833.372309  -2482.050480  20343.422793   -150.395254
PG10  14167.915604  -5172.881613 -21782.945232   -237.147615
PG11  -7619.290445 -14862.011901 -21102.353259   -367.748474
PG12   9949.996383  24163.439521   5017.209777    153.790405
PG13  -9531.868447  20888.331362 -13404.821858    -14.491270
PG14  18349.625869 -19045.105746   1091.316167    -33.915724
PG15   2679.052634  19516.500621 -17946.903192   -253.172017
PG16   2046.964468 -23561.643591  11410.160581   -121.981290
PG17 -21052.840969  13284.880704  -8753.328247    212.141490
PG18  -8636.787048 -15590.938953 -20225.229288      1.384423
PG19 -20239.672705  17115.769486  -2026.465458   -201.825633
PG20  18243.868366   5831.343406 -18571.132487    527.855593
PG21  26217.414230   3025.080713   -491.794348    -44.380717
PG22 -10628.953654 -24406.863487    -67.356531   -784.106171
PG23 -10975.356883 -11385.205853  21676.501587   -137.903006
PG24  15406.206664  14383.245627 -16564.052456     -8.712347
PG25  15990.979217  15052.668667  14900.912447    -13.931942
PG26   7386.059694 -17621.128421  18330.356157    143.618734
PG27  10455.169265 -22193.632239  -9863.900630   -204.363110
PG28 -13404.784847   6077.005026 -21529.748089    740.651595
PG29  15614.248046   4096.040692  21062.984439    -27.275851
PG30 -24390.713050   2201.335484 -10498.467640   -147.697402
PG31  17324.597789  -9167.089816  18096.400967    -21.698440
PG32  20427.242935 -14408.586676  -8701.216688    206.261316
PJ01 -27005.766513  27558.930278  21988.538079   -325.331376
PJ02 -23141.734748  16811.878550 -26550.799557     -1.187027
PJ03 -28330.700053  31201.595017   6337.178719     -0.393514
PR01  11226.462011   -100.830624 -22906.491287     56.746800
PR02   9685.739337 -20196.830471 -12114.740119    410.764026
PR03   2132.020692 -24867.259631   5180.783868      9.632973
PR04  -6424.132467 -15294.960226  19398.233328     37.986490
PR05 -11364.944038   2948.641180  22654.722797     44.594158
PR07  -1936.716381  24821.556621  -5618.383816    -32.928905
PR08   6434.248260  15388.511515 -19255.673269    -50.382220
PR09  -5124.049031  10262.409227 -22768.724033    115.596601
PR11  19340.793929  16598.060256   -181.272986    -12.692838
PR12  19145.485503   6683.120187  15515.487897    103.712594
PR13   7738.871725  -7760.941423  23012.633491    -34.506485
PR14  -7951.824282 -17439.256981  16842.924654     47.897939
PR15 -18982.629587 -16997.938544   1103.654715    105.874394
PR16 -19107.769756  -5815.936988 -15812.114310     -1.361257
PR17   4952.815012 -12273.029892 -21796.784436    299.039315
PR18 -12677.048716  -5826.123567 -21347.035395     24.310064
PR19 -23388.502206   2910.944151  -9748.234227    -77.940348
PR20 -20773.411316  11191.377757   9764.412099   -403.498377
PR21  -4024.296560  12007.367456  22145.686807   -103.393160
PR22  14963.896400   4466.414587  20139.078463    -13.050079
PR23  24373.795850  -6638.885284   3523.174134    284.897928
PR26 -22532.816783  10449.691803   5769.951838   -408.539096
EOF
